{"type": "FeatureCollection", "features": [ {"type": "Feature", "properties": {"norad_id": 35290, "name": "COSMOS 2251 DEB", "group": "cosmos-2251-debris", "lat": -64.9764306769983, "lon": -98.54225490192889, "alt_km": 633.8420839600967, "timestamp": "2025-12-20T18:51:32.109193+00:00", "meta": {"OBJECT_NAME": "COSMOS 2251 DEB", "OBJECT_ID": "1993-036AJU", "EPOCH": "2025-12-20T03:08:10.287168", "MEAN_MOTION": 14.80565596, "ECCENTRICITY": 0.00016036, "INCLINATION": 74.0049, "RA_OF_ASC_NODE": 44.8368, "ARG_OF_PERICENTER": 190.188, "MEAN_ANOMALY": 169.9265, "EPHEMERIS_TYPE": 0, "CLASSIFICATION_TYPE": "U", "NORAD_CAT_ID": 35290, "ELEMENT_SET_NO": 999, "REV_AT_EPOCH": 88067, "BSTAR": 0.0010027753, "MEAN_MOTION_DOT": 7.664e-05, "MEAN_MOTION_DDOT": 0}, "tle": {"line1": "1 35290U 93036AJU 25354.13067462  .00007664  00000+0  10028-2 0  9993", "line2": "2 35290  74.0049  44.8368 0001603 190.1880 169.9265 14.80565596880671"}}, "geometry": {"type": "Point", "coordinates": [-98.54225490192889, -64.9764306769983]}}, {"type": "Feature", "properties": {"norad_id": 35432, "name": "COSMOS 2251 DEB", "group": "cosmos-2251-debris", "lat": -65.15485985902379, "lon": -39.65503861186932, "alt_km": 493.588904675732, "timestamp": "2025-12-20T18:51:32.109203+00:00", "meta": {"OBJECT_NAME": "COSMOS 2251 DEB", "OBJECT_ID": "1993-036AKA", "EPOCH": "2025-12-20T01:50:18.903552", "MEAN_MOTION": 15.24046357, "ECCENTRICITY": 0.00124844, "INCLINATION": 74.0227, "RA_OF_ASC_NODE": 0.0698, "ARG_OF_PERICENTER": 329.3512, "MEAN_ANOMALY": 30.6957, "EPHEMERIS_TYPE": 0, "CLASSIFICATION_TYPE": "U", "NORAD_CAT_ID": 35432, "ELEMENT_SET_NO": 999, "REV_AT_EPOCH": 87615, "BSTAR": 0.0018882946, "MEAN_MOTION_DOT": 0.00046162, "MEAN_MOTION_DDOT": 0}, "tle": {"line1": "1 35432U 93036AKA 25354.07660768  .00046162  00000+0  18883-2 0  9995", "line2": "2 35432  74.0227   0.0698 0012484 329.3512  30.6957 15.24046357876152"}}, "geometry": {"type": "Point", "coordinates": [-39.65503861186932, -65.15485985902379]}}, {"type": "Feature", "properties": {"norad_id": 35433, "name": "COSMOS 2251 DEB", "group": "cosmos-2251-debris", "lat": 52.18884008930606, "lon": -14.640188034652317, "alt_km": 756.4114483396625, "timestamp": "2025-12-20T18:51:32.109213+00:00", "meta": {"OBJECT_NAME": "COSMOS 2251 DEB", "OBJECT_ID": "1993-036AKB", "EPOCH": "2025-12-10T18:27:52.031808", "MEAN_MOTION": 14.34742553, "ECCENTRICITY": 0.00254013, "INCLINATION": 74.0339, "RA_OF_ASC_NODE": 342.0559, "ARG_OF_PERICENTER": 37.4572, "MEAN_ANOMALY": 142.4072, "EPHEMERIS_TYPE": 0, "CLASSIFICATION_TYPE": "U", "NORAD_CAT_ID": 35433, "ELEMENT_SET_NO": 999, "REV_AT_EPOCH": 86552, "BSTAR": 0.00041847558, "MEAN_MOTION_DOT": 1.164e-05, "MEAN_MOTION_DDOT": 0}, "tle": {"line1": "1 35433U 93036AKB 25344.76935222  .00001164  00000+0  41848-3 0  9992", "line2": "2 35433  74.0339 342.0559 0025401  37.4572 142.4072 14.34742553865528"}}, "geometry": {"type": "Point", "coordinates": [-14.640188034652317, 52.18884008930606]}}, {"type": "Feature", "properties": {"norad_id": 35434, "name": "COSMOS 2251 DEB", "group": "cosmos-2251-debris", "lat": 63.371216799761974, "lon": -126.09073635583329, "alt_km": 858.708736728423, "timestamp": "2025-12-20T18:51:32.109223+00:00", "meta": {"OBJECT_NAME": "COSMOS 2251 DEB", "OBJECT_ID": "1993-036AKC", "EPOCH": "2025-12-13T21:29:58.278624", "MEAN_MOTION": 14.25692247, "ECCENTRICITY": 0.00874643, "INCLINATION": 74.0404, "RA_OF_ASC_NODE": 211.5388, "ARG_OF_PERICENTER": 282.0357, "MEAN_ANOMALY": 77.0999, "EPHEMERIS_TYPE": 0, "CLASSIFICATION_TYPE": "U", "NORAD_CAT_ID": 35434, "ELEMENT_SET_NO": 999, "REV_AT_EPOCH": 86134, "BSTAR": 0.00076141319, "MEAN_MOTION_DOT": 1.854e-05, "MEAN_MOTION_DDOT": 0}, "tle": {"line1": "1 35434U 93036AKC 25347.89581341  .00001854  00000+0  76141-3 0  9999", "line2": "2 35434  74.0404 211.5388 0087464 282.0357  77.0999 14.25692247861349"}}, "geometry": {"type": "Point", "coordinates": [-126.09073635583329, 63.371216799761974]}}, {"type": "Feature", "properties": {"norad_id": 35435, "name": "COSMOS 2251 DEB", "group": "cosmos-2251-debris", "lat": -8.095364016894164, "lon": 85.893058593711, "alt_km": 642.1514378441998, "timestamp": "2025-12-20T18:51:32.109233+00:00", "meta": {"OBJECT_NAME": "COSMOS 2251 DEB", "OBJECT_ID": "1993-036AKD", "EPOCH": "2025-12-18T13:24:14.493312", "MEAN_MOTION": 14.78644291, "ECCENTRICITY": 0.00073996, "INCLINATION": 74.0108, "RA_OF_ASC_NODE": 92.6132, "ARG_OF_PERICENTER": 188.8212, "MEAN_ANOMALY": 191.4596, "EPHEMERIS_TYPE": 0, "CLASSIFICATION_TYPE": "U", "NORAD_CAT_ID": 35435, "ELEMENT_SET_NO": 999, "REV_AT_EPOCH": 87625, "BSTAR": 0.0017393261, "MEAN_MOTION_DOT": 0.0001274, "MEAN_MOTION_DDOT": 0}, "tle": {"line1": "1 35435U 93036AKD 25352.55850108  .00012740  00000+0  17393-2 0  9998", "line2": "2 35435  74.0108  92.6132 0007399 188.8212 191.4596 14.78644291876252"}}, "geometry": {"type": "Point", "coordinates": [85.893058593711, -8.095364016894164]}}, {"type": "Feature", "properties": {"norad_id": 35439, "name": "COSMOS 2251 DEB", "group": "cosmos-2251-debris", "lat": -38.18012489562061, "lon": 107.93166940383993, "alt_km": 772.869510584871, "timestamp": "2025-12-20T18:51:32.109244+00:00", "meta": {"OBJECT_NAME": "COSMOS 2251 DEB", "OBJECT_ID": "1993-036AKH", "EPOCH": "2025-12-17T04:00:48.812832", "MEAN_MOTION": 13.92829249, "ECCENTRICITY": 0.02424604, "INCLINATION": 74.0187, "RA_OF_ASC_NODE": 127.1529, "ARG_OF_PERICENTER": 295.4748, "MEAN_ANOMALY": 245.9503, "EPHEMERIS_TYPE": 0, "CLASSIFICATION_TYPE": "U", "NORAD_CAT_ID": 35439, "ELEMENT_SET_NO": 999, "REV_AT_EPOCH": 84022, "BSTAR": 0.0013909461, "MEAN_MOTION_DOT": 2.269e-05, "MEAN_MOTION_DDOT": 0}, "tle": {"line1": "1 35439U 93036AKH 25351.16723163  .00002269  00000+0  13909-2 0  9992", "line2": "2 35439  74.0187 127.1529 0242460 295.4748 245.9503 13.92829249840220"}}, "geometry": {"type": "Point", "coordinates": [107.93166940383993, -38.18012489562061]}}, {"type": "Feature", "properties": {"norad_id": 35440, "name": "COSMOS 2251 DEB", "group": "cosmos-2251-debris", "lat": 64.56478228296905, "lon": -130.89395074047943, "alt_km": 665.4676031290128, "timestamp": "2025-12-20T18:51:32.109253+00:00", "meta": {"OBJECT_NAME": "COSMOS 2251 DEB", "OBJECT_ID": "1993-036AKJ", "EPOCH": "2025-12-17T20:15:19.490976", "MEAN_MOTION": 14.68838958, "ECCENTRICITY": 0.00695054, "INCLINATION": 74.0134, "RA_OF_ASC_NODE": 197.7346, "ARG_OF_PERICENTER": 337.3687, "MEAN_ANOMALY": 22.4422, "EPHEMERIS_TYPE": 0, "CLASSIFICATION_TYPE": "U", "NORAD_CAT_ID": 35440, "ELEMENT_SET_NO": 999, "REV_AT_EPOCH": 68840, "BSTAR": 0.00030670457, "MEAN_MOTION_DOT": 1.824e-05, "MEAN_MOTION_DDOT": 0}, "tle": {"line1": "1 35440U 93036AKJ 25351.84397559  .00001824  00000+0  30670-3 0  9996", "line2": "2 35440  74.0134 197.7346 0069505 337.3687  22.4422 14.68838958688408"}}, "geometry": {"type": "Point", "coordinates": [-130.89395074047943, 64.56478228296905]}}, {"type": "Feature", "properties": {"norad_id": 35441, "name": "COSMOS 2251 DEB", "group": "cosmos-2251-debris", "lat": -23.247805486933075, "lon": 109.7908616691722, "alt_km": 666.8738100338569, "timestamp": "2025-12-20T18:51:32.109263+00:00", "meta": {"OBJECT_NAME": "COSMOS 2251 DEB", "OBJECT_ID": "1993-036AKK", "EPOCH": "2025-12-20T13:00:18.978048", "MEAN_MOTION": 14.62699572, "ECCENTRICITY": 0.00362167, "INCLINATION": 74.1355, "RA_OF_ASC_NODE": 283.2382, "ARG_OF_PERICENTER": 177.1312, "MEAN_ANOMALY": 183.007, "EPHEMERIS_TYPE": 0, "CLASSIFICATION_TYPE": "U", "NORAD_CAT_ID": 35441, "ELEMENT_SET_NO": 999, "REV_AT_EPOCH": 87544, "BSTAR": 0.00085570984, "MEAN_MOTION_DOT": 4.371e-05, "MEAN_MOTION_DDOT": 0}, "tle": {"line1": "1 35441U 93036AKK 25354.54188632  .00004371  00000+0  85571-3 0  9997", "line2": "2 35441  74.1355 283.2382 0036216 177.1312 183.0070 14.62699572875440"}}, "geometry": {"type": "Point", "coordinates": [109.7908616691722, -23.247805486933075]}}, {"type": "Feature", "properties": {"norad_id": 35442, "name": "COSMOS 2251 DEB", "group": "cosmos-2251-debris", "lat": 0.8074833414735497, "lon": 83.39701608434605, "alt_km": 615.5693008655971, "timestamp": "2025-12-20T18:51:32.109274+00:00", "meta": {"OBJECT_NAME": "COSMOS 2251 DEB", "OBJECT_ID": "1993-036AKL", "EPOCH": "2025-12-20T12:23:11.250816", "MEAN_MOTION": 14.84692405, "ECCENTRICITY": 0.00038306, "INCLINATION": 74.0274, "RA_OF_ASC_NODE": 83.7009, "ARG_OF_PERICENTER": 56.8444, "MEAN_ANOMALY": 303.3101, "EPHEMERIS_TYPE": 0, "CLASSIFICATION_TYPE": "U", "NORAD_CAT_ID": 35442, "ELEMENT_SET_NO": 999, "REV_AT_EPOCH": 87468, "BSTAR": 0.0013094201, "MEAN_MOTION_DOT": 0.00011072, "MEAN_MOTION_DDOT": 0}, "tle": {"line1": "1 35442U 93036AKL 25354.51610244  .00011072  00000+0  13094-2 0  9990", "line2": "2 35442  74.0274  83.7009 0003830  56.8444 303.3101 14.84692405874683"}}, "geometry": {"type": "Point", "coordinates": [83.39701608434605, 0.8074833414735497]}}, {"type": "Feature", "properties": {"norad_id": 35443, "name": "COSMOS 2251 DEB", "group": "cosmos-2251-debris", "lat": 31.83986886064009, "lon": -34.461480804563564, "alt_km": 548.7938283305393, "timestamp": "2025-12-20T18:51:32.109284+00:00", "meta": {"OBJECT_NAME": "COSMOS 2251 DEB", "OBJECT_ID": "1993-036AKM", "EPOCH": "2025-12-19T13:50:47.178816", "MEAN_MOTION": 14.97233241, "ECCENTRICITY": 0.007292, "INCLINATION": 73.988, "RA_OF_ASC_NODE": 317.7188, "ARG_OF_PERICENTER": 97.8759, "MEAN_ANOMALY": 263.0711, "EPHEMERIS_TYPE": 0, "CLASSIFICATION_TYPE": "U", "NORAD_CAT_ID": 35443, "ELEMENT_SET_NO": 999, "REV_AT_EPOCH": 86980, "BSTAR": 0.0025283, "MEAN_MOTION_DOT": 0.00031007, "MEAN_MOTION_DDOT": 0}, "tle": {"line1": "1 35443U 93036AKM 25353.57693494  .00031007  00000+0  25283-2 0  9997", "line2": "2 35443  73.9880 317.7188 0072920  97.8759 263.0711 14.97233241869803"}}, "geometry": {"type": "Point", "coordinates": [-34.461480804563564, 31.83986886064009]}}]}